{"fetched_at":"2026-03-29T16:36:15Z","count":15609,"tles":[{"name":"STARLINK-35221","line1":"1 65695U 25212V   26087.88086396  .00030312  00000+0  10309-2 0  9997","line2":"2 65695  53.1573 256.4029 0000702  52.9983 307.1082 15.30216240 30198","category":"Starlink"}]}